{
  "links" : {
    "next" : "https://api.nasa.gov/neo/rest/v1/feed?start_date=2006-01-09&end_date=2006-01-09&detailed=true&api_key=t0TVs3DtDT2H8Oy2Zy8m2eVrNsAVKAexjcZXUckd",
    "prev" : "https://api.nasa.gov/neo/rest/v1/feed?start_date=2006-01-07&end_date=2006-01-07&detailed=true&api_key=t0TVs3DtDT2H8Oy2Zy8m2eVrNsAVKAexjcZXUckd",
    "self" : "https://api.nasa.gov/neo/rest/v1/feed?start_date=2006-01-08&end_date=2006-01-08&detailed=true&api_key=t0TVs3DtDT2H8Oy2Zy8m2eVrNsAVKAexjcZXUckd"
  },
  "element_count" : 8,
  "near_earth_objects" : {
    "2006-01-08" : [ {
      "links" : {
        "self" : "https://api.nasa.gov/neo/rest/v1/neo/3312420?api_key=t0TVs3DtDT2H8Oy2Zy8m2eVrNsAVKAexjcZXUckd"
      },
      "neo_reference_id" : "3312420",
      "name" : "(2006 AW44)",
      "nasa_jpl_url" : "http://ssd.jpl.nasa.gov/sbdb.cgi?sstr=3312420",
      "absolute_magnitude_h" : 23.4,
      "estimated_diameter" : {
        "kilometers" : {
          "estimated_diameter_min" : 0.0555334912,
          "estimated_diameter_max" : 0.1241766613
        },
        "meters" : {
          "estimated_diameter_min" : 55.5334911581,
          "estimated_diameter_max" : 124.1766612574
        },
        "miles" : {
          "estimated_diameter_min" : 0.0345069009,
          "estimated_diameter_max" : 0.0771597762
        },
        "feet" : {
          "estimated_diameter_min" : 182.1964991311,
          "estimated_diameter_max" : 407.4037573197
        }
      },
      "is_potentially_hazardous_asteroid" : false,
      "close_approach_data" : [ {
        "close_approach_date" : "2006-01-08",
        "epoch_date_close_approach" : 1136707200000,
        "relative_velocity" : {
          "kilometers_per_second" : "7.1152011261",
          "kilometers_per_hour" : "25614.7240538019",
          "miles_per_hour" : "15915.9933988749"
        },
        "miss_distance" : {
          "astronomical" : "0.1209679687",
          "lunar" : "47.0565414429",
          "kilometers" : "18096550",
          "miles" : "11244675"
        },
        "orbiting_body" : "Earth"
      } ],
      "orbital_data" : {
        "orbit_id" : "11",
        "orbit_determination_date" : "2017-04-06 09:09:24",
        "orbit_uncertainty" : "6",
        "minimum_orbit_intersection" : ".103824",
        "jupiter_tisserand_invariant" : "3.224",
        "epoch_osculation" : "2458000.5",
        "eccentricity" : ".5629373304064302",
        "semi_major_axis" : "2.484431656131456",
        "inclination" : "8.659520387247399",
        "ascending_node_longitude" : "108.6370462654698",
        "orbital_period" : "1430.339092000809",
        "perihelion_distance" : "1.085852332051588",
        "perihelion_argument" : ".9059608765873263",
        "aphelion_distance" : "3.883010980211324",
        "perihelion_time" : "2458043.004664969291",
        "mean_anomaly" : "349.3020616757805",
        "mean_motion" : ".2516885695240415",
        "equinox" : "J2000"
      }
    }, {
      "links" : {
        "self" : "https://api.nasa.gov/neo/rest/v1/neo/3606312?api_key=t0TVs3DtDT2H8Oy2Zy8m2eVrNsAVKAexjcZXUckd"
      },
      "neo_reference_id" : "3606312",
      "name" : "(2012 PA)",
      "nasa_jpl_url" : "http://ssd.jpl.nasa.gov/sbdb.cgi?sstr=3606312",
      "absolute_magnitude_h" : 20.3,
      "estimated_diameter" : {
        "kilometers" : {
          "estimated_diameter_min" : 0.2315021222,
          "estimated_diameter_max" : 0.5176544822
        },
        "meters" : {
          "estimated_diameter_min" : 231.5021222103,
          "estimated_diameter_max" : 517.6544821978
        },
        "miles" : {
          "estimated_diameter_min" : 0.1438487052,
          "estimated_diameter_max" : 0.3216554833
        },
        "feet" : {
          "estimated_diameter_min" : 759.5214226325,
          "estimated_diameter_max" : 1698.3415313737
        }
      },
      "is_potentially_hazardous_asteroid" : false,
      "close_approach_data" : [ {
        "close_approach_date" : "2006-01-08",
        "epoch_date_close_approach" : 1136707200000,
        "relative_velocity" : {
          "kilometers_per_second" : "15.0199277097",
          "kilometers_per_hour" : "54071.7397548091",
          "miles_per_hour" : "33598.076293759"
        },
        "miss_distance" : {
          "astronomical" : "0.4182299132",
          "lunar" : "162.6914367676",
          "kilometers" : "62566304",
          "miles" : "38876900"
        },
        "orbiting_body" : "Earth"
      } ],
      "orbital_data" : {
        "orbit_id" : "27",
        "orbit_determination_date" : "2017-04-06 08:49:22",
        "orbit_uncertainty" : "1",
        "minimum_orbit_intersection" : ".146965",
        "jupiter_tisserand_invariant" : "4.544",
        "epoch_osculation" : "2458000.5",
        "eccentricity" : ".703031263162441",
        "semi_major_axis" : "1.357925672885148",
        "inclination" : "11.25159614775946",
        "ascending_node_longitude" : "170.4874230953698",
        "orbital_period" : "577.9794875235011",
        "perihelion_distance" : ".4032614717959948",
        "perihelion_argument" : "14.70906804825997",
        "aphelion_distance" : "2.312589873974302",
        "perihelion_time" : "2457821.828022616389",
        "mean_anomaly" : "111.2875339810129",
        "mean_motion" : ".6228594747237671",
        "equinox" : "J2000"
      }
    } ]
  }
}